[{"OBJECT_NAME":"YUNHAI-1 02","OBJECT_ID":"2019-063A","EPOCH":"2026-03-09T23:04:05.569248","MEAN_MOTION":14.32707277,"ECCENTRICITY":0.00067235,"INCLINATION":98.4179,"RA_OF_ASC_NODE":82.2649,"ARG_OF_PERICENTER":91.6948,"MEAN_ANOMALY":268.5007,"EPHEMERIS_TYPE":0,"CLASSIFICATION_TYPE":"U","NORAD_CAT_ID":44547,"ELEMENT_SET_NO":999,"REV_AT_EPOCH":33766,"BSTAR":0.00012714191,"MEAN_MOTION_DOT":3.04e-6,"MEAN_MOTION_DDOT":0},{"OBJECT_NAME":"CZ-6A DEB","OBJECT_ID":"2022-151AEA","EPOCH":"2026-03-08T11:53:56.544576","MEAN_MOTION":14.3312439,"ECCENTRICITY":0.00326366,"INCLINATION":98.7876,"RA_OF_ASC_NODE":87.2629,"ARG_OF_PERICENTER":182.179,"MEAN_ANOMALY":177.9257,"EPHEMERIS_TYPE":0,"CLASSIFICATION_TYPE":"U","NORAD_CAT_ID":56602,"ELEMENT_SET_NO":999,"REV_AT_EPOCH":15754,"BSTAR":0.0036411323,"MEAN_MOTION_DOT":0.00010018,"MEAN_MOTION_DDOT":0}]
